{
  "norad_id": 41340,
  "name": "HORYU-4",
  "history": [
    {
      "epoch": "2026-03-28T20:34:56.596800",
      "apogee_km": 372.2532346796961,
      "perigee_km": 364.7702566899061,
      "latitude_deg": -18.41151319925326,
      "longitude_deg": -163.67044799984433,
      "semi_major_axis_km": 6746.648745684801,
      "eccentricity": 0.00055457,
      "inclination_deg": 30.991,
      "raan_deg": 293.5854,
      "arg_perigee_deg": 336.7446,
      "mean_anomaly_deg": 23.2957,
      "mean_motion_rev_day": 15.66645055
    }
  ]
}